[{"OBJECT_NAME":"FLOCK 4H-34","OBJECT_ID":"2025-276BZ","EPOCH":"2026-03-09T04:19:28.608672","MEAN_MOTION":15.1928367,"ECCENTRICITY":0.00010193,"INCLINATION":97.4305,"RA_OF_ASC_NODE":143.5834,"ARG_OF_PERICENTER":313.8618,"MEAN_ANOMALY":46.2533,"EPHEMERIS_TYPE":0,"CLASSIFICATION_TYPE":"U","NORAD_CAT_ID":66737,"ELEMENT_SET_NO":999,"REV_AT_EPOCH":1449,"BSTAR":0.00036111821,"MEAN_MOTION_DOT":7.553e-5,"MEAN_MOTION_DDOT":0},{"OBJECT_NAME":"HYDROGNSS-1","OBJECT_ID":"2025-276DA","EPOCH":"2026-03-09T16:55:29.279136","MEAN_MOTION":15.18118061,"ECCENTRICITY":0.00027273,"INCLINATION":97.4268,"RA_OF_ASC_NODE":143.9079,"ARG_OF_PERICENTER":33.5879,"MEAN_ANOMALY":326.5527,"EPHEMERIS_TYPE":0,"CLASSIFICATION_TYPE":"U","NORAD_CAT_ID":66762,"ELEMENT_SET_NO":999,"REV_AT_EPOCH":1531,"BSTAR":0.00026903168,"MEAN_MOTION_DOT":5.422e-5,"MEAN_MOTION_DDOT":0}]
